STARLINK-31066          
1 58676U 23211K   26067.46545561  .00009744  00000+0  37151-3 0  9991
2 58676  43.0016 237.9691 0005727 306.2936  53.7386 15.26815036121840
JINJUSAT-1B             
1 63210U 25052A   26068.66363707  .00019955  00000+0  68430-3 0  9998
2 63210  97.4113 325.4613 0005550  82.1930 277.9941 15.30194857 54866
